{"type": "FeatureCollection", "features": [{"type": "Feature", "properties": {"norad_id": 50032, "name": "COSMOS 1408 DEB", "group": "cosmos-1408-debris", "lat": -32.01212947546521, "lon": 49.476392024242614, "alt_km": 442.9096729465173, "timestamp": "2025-12-16T23:36:36.466969+00:00", "meta": {"OBJECT_NAME": "COSMOS 1408 DEB", "OBJECT_ID": "1982-092RU", "EPOCH": "2025-12-16T05:06:21.225888", "MEAN_MOTION": 15.45730452, "ECCENTRICITY": 0.00155777, "INCLINATION": 82.5646, "RA_OF_ASC_NODE": 54.9497, "ARG_OF_PERICENTER": 195.434, "MEAN_ANOMALY": 164.6436, "EPHEMERIS_TYPE": 0, "CLASSIFICATION_TYPE": "U", "NORAD_CAT_ID": 50032, "ELEMENT_SET_NO": 999, "REV_AT_EPOCH": 22657, "BSTAR": 8.4676091e-05, "MEAN_MOTION_DOT": 4.151e-05, "MEAN_MOTION_DDOT": 0}, "tle": {"line1": "1 50032U 82092RU  25350.21274567  .00004151  00000+0  84676-4 0  9995", "line2": "2 50032  82.5646  54.9497 0015577 195.4340 164.6436 15.45730452226570"}}, "geometry": {"type": "Point", "coordinates": [49.476392024242614, -32.01212947546521]}}, {"type": "Feature", "properties": {"norad_id": 50058, "name": "COSMOS 1408 DEB", "group": "cosmos-1408-debris", "lat": 82.34274649837475, "lon": 170.11378685318348, "alt_km": 356.7580515096761, "timestamp": "2025-12-16T23:36:36.466989+00:00", "meta": {"OBJECT_NAME": "COSMOS 1408 DEB", "OBJECT_ID": "1982-092SW", "EPOCH": "2025-12-16T06:19:54.692544", "MEAN_MOTION": 15.64319409, "ECCENTRICITY": 0.0016245, "INCLINATION": 82.6134, "RA_OF_ASC_NODE": 65.6532, "ARG_OF_PERICENTER": 87.0732, "MEAN_ANOMALY": 273.2386, "EPHEMERIS_TYPE": 0, "CLASSIFICATION_TYPE": "U", "NORAD_CAT_ID": 50058, "ELEMENT_SET_NO": 999, "REV_AT_EPOCH": 22859, "BSTAR": 0.00025808893, "MEAN_MOTION_DOT": 0.00024871, "MEAN_MOTION_DDOT": 0}, "tle": {"line1": "1 50058U 82092SW  25350.26382746  .00024871  00000+0  25809-3 0  9990", "line2": "2 50058  82.6134  65.6532 0016245  87.0732 273.2386 15.64319409228595"}}, "geometry": {"type": "Point", "coordinates": [170.11378685318348, 82.34274649837475]}}, {"type": "Feature", "properties": {"norad_id": 50404, "name": "COSMOS 1408 DEB", "group": "cosmos-1408-debris", "lat": 22.44903684174139, "lon": 27.441531246506855, "alt_km": 417.35678874407495, "timestamp": "2025-12-16T23:36:36.467003+00:00", "meta": {"OBJECT_NAME": "COSMOS 1408 DEB", "OBJECT_ID": "1982-092ADS", "EPOCH": "2025-12-16T02:17:51.247392", "MEAN_MOTION": 15.14319764, "ECCENTRICITY": 0.01706326, "INCLINATION": 82.2038, "RA_OF_ASC_NODE": 211.5967, "ARG_OF_PERICENTER": 187.3723, "MEAN_ANOMALY": 172.5, "EPHEMERIS_TYPE": 0, "CLASSIFICATION_TYPE": "U", "NORAD_CAT_ID": 50404, "ELEMENT_SET_NO": 999, "REV_AT_EPOCH": 21244, "BSTAR": 0.0022917687, "MEAN_MOTION_DOT": 0.00060969, "MEAN_MOTION_DDOT": 0}, "tle": {"line1": "1 50404U 82092ADS 25350.09573203  .00060969  00000+0  22918-2 0  9991", "line2": "2 50404  82.2038 211.5967 0170632 187.3723 172.5000 15.14319764212448"}}, "geometry": {"type": "Point", "coordinates": [27.441531246506855, 22.44903684174139]}}, {"type": "Feature", "properties": {"norad_id": 50621, "name": "COSMOS 1408 DEB", "group": "cosmos-1408-debris", "lat": -5.756172142335766, "lon": 69.00837973852212, "alt_km": 416.1349140627917, "timestamp": "2025-12-16T23:36:36.467015+00:00", "meta": {"OBJECT_NAME": "COSMOS 1408 DEB", "OBJECT_ID": "1982-092ALR", "EPOCH": "2025-12-16T06:40:00.223104", "MEAN_MOTION": 15.56850674, "ECCENTRICITY": 0.00290023, "INCLINATION": 82.5706, "RA_OF_ASC_NODE": 70.4972, "ARG_OF_PERICENTER": 139.5143, "MEAN_ANOMALY": 220.8277, "EPHEMERIS_TYPE": 0, "CLASSIFICATION_TYPE": "U", "NORAD_CAT_ID": 50621, "ELEMENT_SET_NO": 999, "REV_AT_EPOCH": 22305, "BSTAR": 0.00028890542, "MEAN_MOTION_DOT": 0.00021197, "MEAN_MOTION_DDOT": 0}, "tle": {"line1": "1 50621U 82092ALR 25350.27778036  .00021197  00000+0  28891-3 0  9990", "line2": "2 50621  82.5706  70.4972 0029002 139.5143 220.8277 15.56850674223059"}}, "geometry": {"type": "Point", "coordinates": [69.00837973852212, -5.756172142335766]}}]}